STARLINK-37421          
1 68821U 26089V   26117.53718876 -.00402357  63310-4 -61512-3 0  9990
2 68821  97.2849 322.6911 0002850 152.1958 207.9475 16.04351014   713
