{
  "norad_id": 68821,
  "name": "STARLINK-37421",
  "history": [
    {
      "epoch": "2026-04-27T12:53:33.108864Z",
      "apogee_km": 264.27834592143336,
      "perigee_km": 260.4924512915404,
      "latitude_deg": -5.829590720475841e-05,
      "longitude_deg": -86.2224256535172,
      "height_km": 267.26544046360266,
      "semi_major_axis_km": 6640.522398606487,
      "eccentricity": 0.00028506,
      "inclination_deg": 97.2849,
      "raan_deg": 322.6911,
      "arg_perigee_deg": 152.1958,
      "mean_anomaly_deg": 207.9475,
      "mean_motion_rev_day": 16.04351014
    }
  ]
}